OBJECT_NAME,OBJECT_ID,EPOCH,MEAN_MOTION,ECCENTRICITY,INCLINATION,RA_OF_ASC_NODE,ARG_OF_PERICENTER,MEAN_ANOMALY,EPHEMERIS_TYPE,CLASSIFICATION_TYPE,NORAD_CAT_ID,ELEMENT_SET_NO,REV_AT_EPOCH,BSTAR,MEAN_MOTION_DOT,MEAN_MOTION_DDOT
IONOSFERA-M 2,2024-199B,2026-06-26T22:23:34.335456,14.22759244,.00006279,98.7161,50.9124,39.8841,320.2383,0,U,61736,999,13221,.44746766E-4,.56E-6,0
PRSC-EO1,2025-012A,2026-06-26T22:47:37.815072,15.17727039,.0005578,97.4229,250.2186,211.5141,148.5760,0,U,62725,999,7967,.40576409E-3,.8125E-4,0
BIOMASS,2025-090A,2026-06-25T10:04:41.476800,14.67536962,.0001429,98.0741,3.6181,94.8977,265.2391,0,U,63772,999,6189,.12495E-3,.661E-5,0
GOSAT-GW (IBUKI GW),2025-141A,2026-06-26T22:33:44.352288,14.67553853,.00014484,98.0568,115.0986,83.9124,276.2245,0,U,64694,999,5327,.18405471E-3,.996E-5,0
IONOSFERA-M 3,2025-155A,2026-06-26T23:01:37.523712,14.21487986,.00015591,98.6028,139.6186,140.5345,219.5947,0,U,64876,999,4779,.32481607E-4,.28E-6,0
IONOSFERA-M 4,2025-155B,2026-06-26T23:51:46.429632,14.21490402,.0001388,98.6027,139.5698,115.9962,244.1359,0,U,64877,999,4779,.40594473E-4,.46E-6,0
MICROCARB,2025-156A,2026-06-26T22:27:06.530400,14.72532931,.00154571,97.9920,254.9048,234.9810,124.9947,0,U,64899,999,4940,.90683713E-4,.527E-5,0
CO3D 3,2025-156B,2026-06-26T22:18:20.642112,15.20202497,.00017682,97.4334,256.4821,118.3914,241.7500,0,U,64900,999,5101,.21732614E-3,.464E-4,0
CO3D 4,2025-156C,2026-06-26T22:18:33.750720,15.20203791,.00004799,97.4336,256.4823,186.5400,173.5829,0,U,64901,999,5101,.21149344E-3,.4514E-4,0
CO3D 2,2025-156D,2026-06-26T21:30:32.633856,15.20209156,.00015157,97.4335,256.3482,99.9516,260.1890,0,U,64902,999,5100,.23288364E-3,.4978E-4,0
CO3D 1,2025-156E,2026-06-26T21:30:45.769248,15.20203316,.00013768,97.4334,256.3484,108.0979,252.0406,0,U,64903,999,5100,.2426207E-3,.5188E-4,0
PRSC-S1,2025-164A,2026-06-26T21:02:36.046176,15.06528142,.00052003,41.1295,233.2377,54.2479,305.8818,0,U,65055,999,4989,.26198052E-3,.3766E-4,0
SENTINEL-6B,2025-264A,2026-06-26T22:09:41.699520,12.80929969,.00079456,66.0408,114.9566,268.9600,91.0505,0,U,66514,999,2841,-.74184233E-4,-.78E-6,0
CAS500-3,2025-274F,2026-06-26T18:17:17.828160,14.88342664,.00069528,97.7444,105.5953,85.9667,274.2344,0,U,66655,999,3157,.14310288E-3,.1271E-4,0
CSG-3,2026-001A,2026-06-26T23:42:47.925216,14.82160059,.0001466,97.8888,1.4479,96.3357,263.8023,0,U,67304,999,2591,.45172753E-4,.307E-5,0
PRSC-E03,2026-092A,2026-06-26T22:20:03.276672,15.06717798,.00026852,38.0023,32.2242,103.9581,256.1479,0,U,68835,999,942,.20931376E-3,.3062E-4,0
CAS500-2,2026-100AK,2026-06-26T22:58:00.310656,15.20700998,.00095828,97.3905,75.6359,3.5226,356.6075,0,U,69013,999,829,.31618789E-3,.6891E-4,0
