IONOSFERA-M 2           
1 61736U 24199B   26177.93303629  .00000056  00000+0  44747-4 0  9996
2 61736  98.7161  50.9124 0000627  39.8841 320.2383 14.22759244132216
PRSC-EO1                
1 62725U 25012A   26177.94974323  .00008125  00000+0  40576-3 0  9996
2 62725  97.4229 250.2186 0005578 211.5141 148.5760 15.17727039 79673
BIOMASS                 
1 63772U 25090A   26176.41992450  .00000661  00000+0  12495-3 0  9993
2 63772  98.0741   3.6181 0001429  94.8977 265.2391 14.67536962 61896
GOSAT-GW (IBUKI GW)     
1 64694U 25141A   26177.94009667  .00000996  00000+0  18405-3 0  9990
2 64694  98.0568 115.0986 0001448  83.9124 276.2245 14.67553853 53273
IONOSFERA-M 3           
1 64876U 25155A   26177.95946208  .00000028  00000+0  32482-4 0  9997
2 64876  98.6028 139.6186 0001559 140.5345 219.5947 14.21487986 47796
IONOSFERA-M 4           
1 64877U 25155B   26177.99428738  .00000046  00000+0  40594-4 0  9998
2 64877  98.6027 139.5698 0001388 115.9962 244.1359 14.21490402 47792
MICROCARB               
1 64899U 25156A   26177.93549225  .00000527  00000+0  90684-4 0  9991
2 64899  97.9920 254.9048 0015457 234.9810 124.9947 14.72532931 49405
CO3D 3                  
1 64900U 25156B   26177.92940558  .00004640  00000+0  21733-3 0  9995
2 64900  97.4334 256.4821 0001768 118.3914 241.7500 15.20202497 51016
CO3D 4                  
1 64901U 25156C   26177.92955730  .00004514  00000+0  21149-3 0  9995
2 64901  97.4336 256.4823 0000479 186.5400 173.5829 15.20203791 51010
CO3D 2                  
1 64902U 25156D   26177.89621104  .00004978  00000+0  23288-3 0  9997
2 64902  97.4335 256.3482 0001515  99.9516 260.1890 15.20209156 51008
CO3D 1                  
1 64903U 25156E   26177.89636307  .00005188  00000+0  24262-3 0  9996
2 64903  97.4334 256.3484 0001376 108.0979 252.0406 15.20203316 51005
PRSC-S1                 
1 65055U 25164A   26177.87680609  .00003766  00000+0  26198-3 0  9996
2 65055  41.1295 233.2377 0005200  54.2479 305.8818 15.06528142 49897
SENTINEL-6B             
1 66514U 25264A   26177.92339930 -.00000078  00000+0 -74184-4 0  9996
2 66514  66.0408 114.9566 0007945 268.9600  91.0505 12.80929969 28416
CAS500-3                
1 66655U 25274F   26177.76201190  .00001271  00000+0  14310-3 0  9999
2 66655  97.7444 105.5953 0006952  85.9667 274.2344 14.88342664 31574
CSG-3                   
1 67304U 26001A   26177.98805469  .00000307  00000+0  45173-4 0  9994
2 67304  97.8888   1.4479 0001466  96.3357 263.8023 14.82160059 25912
PRSC-E03                
1 68835U 26092A   26177.93059348  .00003062  00000+0  20931-3 0  9991
2 68835  38.0023  32.2242 0002685 103.9581 256.1479 15.06717798  9421
CAS500-2                
1 69013U 26100AK  26177.95694804  .00006891  00000+0  31619-3 0  9992
2 69013  97.3905  75.6359 0009582   3.5226 356.6075 15.20700998  8293
